TURKSAT 1C              
1 23949U 96040B   26061.91830612 -.00000106  00000+0  00000+0 0  9997
2 23949  11.8972  30.9965 0004851 211.7626 320.3296  1.00380495108613
UFO 7 (USA 127)         
1 23967U 96042A   26062.16361528 -.00000240  00000+0  00000+0 0  9991
2 23967  11.0147  17.6475 0002922 107.7520  65.5693  1.00245427108424
INMARSAT 3-F2           
1 24307U 96053A   26061.99547667 -.00000073  00000+0  00000+0 0  9996
2 24307   9.6166  55.0012 0006060 291.3471  69.0210  0.99978354107851
ECHOSTAR 2              
1 24313U 96055A   26061.93308707 -.00000134  00000+0  00000+0 0  9997
2 24313  11.7982  32.3972 0008472  87.3431 272.9140  1.00350380107942
EXPRESS 2               
1 24435U 96058A   26060.81903983 -.00000155  00000+0  00000+0 0  9991
2 24435  14.5792 355.1752 0011160 348.3215 188.1433  1.00334619107734
SL-12 R/B(2)            
1 24438U 96058D   26061.92749490  .00000113  00000+0  00000+0 0  9991
2 24438  14.4004 351.8658 0006854 125.8676  55.5054  1.00235311107772
AFRICASAT-2 (MEASAT-2)  
1 24653U 96063B   26061.62386626 -.00000064  00000+0  00000+0 0  9997
2 24653  12.0983  29.7878 0005135 215.5957 222.8219  0.99649434107220
INMARSAT 3-F3           
1 24674U 96070A   26061.82822588 -.00000245  00000+0  00000+0 0  9993
2 24674  10.0890  50.6565 0006893 269.9178 291.0357  1.00001906106841
DFH 3-2                 
1 24798U 97021A   26061.75585472 -.00000372  00000+0  00000+0 0  9998
2 24798  13.4171  14.5924 0003376  95.4198  89.4184  1.00279085105450
AMC-3                   
1 24936U 97050A   26062.00171671 -.00000274  00000+0  00000+0 0  9996
2 24936   7.8863  65.2894 0003449 283.7763 100.3151  1.00272075 51379
USA 134                 
1 25019U 97065A   26062.09623947 -.00000073  00000+0  00000+0 0  9999
2 25019  12.6588  22.5081 0007024 305.5371 115.3615  1.00271057 31890
KUPON                   
1 25045U 97070A   26061.28983077 -.00000268  00000+0  00000+0 0  9993
2 25045  14.5607 355.4468 0005977 305.9472  54.0088  1.00288205103571
INDOSTAR 1              
1 25050U 97071B   26062.04697612  .00000118  00000+0  00000+0 0  9995
2 25050  12.8351  20.8240 0004917 299.0491 248.5073  1.00266953103730
GALAXY 8 (G-8)          
1 25086U 97078A   26061.82914870 -.00000155  00000+0  00000+0 0  9996
2 25086  13.9793  10.6820 0006746  17.8001 162.9744  0.99695439102888
INTELSAT 804 (IS-804)   
1 25110U 97083A   26062.12059343 -.00000073  00000+0  00000+0 0  9998
2 25110  13.0444  18.4158 0008751   8.8514 344.9976  1.00259878103265
INMARSAT 3-F5           
1 25153U 98006B   26061.86266843 -.00000302  00000+0  00000+0 0  9991
2 25153   9.4564  54.3004 0005367 293.1660  69.6941  1.00268386102833
UFO 8 (USA 138)         
1 25258U 98016A   26061.69141966 -.00000215  00000+0  00000+0 0  9990
2 25258  11.0022  23.4005 0008255 270.7445 266.2732  1.00287121102792
