[{"OBJECT_NAME":"TURKSAT 1C","OBJECT_ID":"1996-040B","EPOCH":"2026-03-02T22:02:21.648768","MEAN_MOTION":1.00380495,"ECCENTRICITY":0.0004851,"INCLINATION":11.8972,"RA_OF_ASC_NODE":30.9965,"ARG_OF_PERICENTER":211.7626,"MEAN_ANOMALY":320.3296,"EPHEMERIS_TYPE":0,"CLASSIFICATION_TYPE":"U","NORAD_CAT_ID":23949,"ELEMENT_SET_NO":999,"REV_AT_EPOCH":10861,"BSTAR":0,"MEAN_MOTION_DOT":-1.06e-6,"MEAN_MOTION_DDOT":0},{"OBJECT_NAME":"UFO 7 (USA 127)","OBJECT_ID":"1996-042A","EPOCH":"2026-03-03T03:55:36.360192","MEAN_MOTION":1.00245427,"ECCENTRICITY":0.0002922,"INCLINATION":11.0147,"RA_OF_ASC_NODE":17.6475,"ARG_OF_PERICENTER":107.752,"MEAN_ANOMALY":65.5693,"EPHEMERIS_TYPE":0,"CLASSIFICATION_TYPE":"U","NORAD_CAT_ID":23967,"ELEMENT_SET_NO":999,"REV_AT_EPOCH":10842,"BSTAR":0,"MEAN_MOTION_DOT":-2.4e-6,"MEAN_MOTION_DDOT":0},{"OBJECT_NAME":"INMARSAT 3-F2","OBJECT_ID":"1996-053A","EPOCH":"2026-03-02T23:53:29.184288","MEAN_MOTION":0.99978354,"ECCENTRICITY":0.000606,"INCLINATION":9.6166,"RA_OF_ASC_NODE":55.0012,"ARG_OF_PERICENTER":291.3471,"MEAN_ANOMALY":69.021,"EPHEMERIS_TYPE":0,"CLASSIFICATION_TYPE":"U","NORAD_CAT_ID":24307,"ELEMENT_SET_NO":999,"REV_AT_EPOCH":10785,"BSTAR":0,"MEAN_MOTION_DOT":-7.3e-7,"MEAN_MOTION_DDOT":0},{"OBJECT_NAME":"ECHOSTAR 2","OBJECT_ID":"1996-055A","EPOCH":"2026-03-02T22:23:38.722848","MEAN_MOTION":1.0035038,"ECCENTRICITY":0.0008472,"INCLINATION":11.7982,"RA_OF_ASC_NODE":32.3972,"ARG_OF_PERICENTER":87.3431,"MEAN_ANOMALY":272.914,"EPHEMERIS_TYPE":0,"CLASSIFICATION_TYPE":"U","NORAD_CAT_ID":24313,"ELEMENT_SET_NO":999,"REV_AT_EPOCH":10794,"BSTAR":0,"MEAN_MOTION_DOT":-1.34e-6,"MEAN_MOTION_DDOT":0},{"OBJECT_NAME":"EXPRESS 2","OBJECT_ID":"1996-058A","EPOCH":"2026-03-01T19:39:25.041312","MEAN_MOTION":1.00334619,"ECCENTRICITY":0.001116,"INCLINATION":14.5792,"RA_OF_ASC_NODE":355.1752,"ARG_OF_PERICENTER":348.3215,"MEAN_ANOMALY":188.1433,"EPHEMERIS_TYPE":0,"CLASSIFICATION_TYPE":"U","NORAD_CAT_ID":24435,"ELEMENT_SET_NO":999,"REV_AT_EPOCH":10773,"BSTAR":0,"MEAN_MOTION_DOT":-1.55e-6,"MEAN_MOTION_DDOT":0},{"OBJECT_NAME":"SL-12 R/B(2)","OBJECT_ID":"1996-058D","EPOCH":"2026-03-02T22:15:35.559360","MEAN_MOTION":1.00235311,"ECCENTRICITY":0.0006854,"INCLINATION":14.4004,"RA_OF_ASC_NODE":351.8658,"ARG_OF_PERICENTER":125.8676,"MEAN_ANOMALY":55.5054,"EPHEMERIS_TYPE":0,"CLASSIFICATION_TYPE":"U","NORAD_CAT_ID":24438,"ELEMENT_SET_NO":999,"REV_AT_EPOCH":10777,"BSTAR":0,"MEAN_MOTION_DOT":1.13e-6,"MEAN_MOTION_DDOT":0},{"OBJECT_NAME":"AFRICASAT-2 (MEASAT-2)","OBJECT_ID":"1996-063B","EPOCH":"2026-03-02T14:58:22.044864","MEAN_MOTION":0.99649434,"ECCENTRICITY":0.0005135,"INCLINATION":12.0983,"RA_OF_ASC_NODE":29.7878,"ARG_OF_PERICENTER":215.5957,"MEAN_ANOMALY":222.8219,"EPHEMERIS_TYPE":0,"CLASSIFICATION_TYPE":"U","NORAD_CAT_ID":24653,"ELEMENT_SET_NO":999,"REV_AT_EPOCH":10722,"BSTAR":0,"MEAN_MOTION_DOT":-6.4e-7,"MEAN_MOTION_DDOT":0},{"OBJECT_NAME":"INMARSAT 3-F3","OBJECT_ID":"1996-070A","EPOCH":"2026-03-02T19:52:38.716032","MEAN_MOTION":1.00001906,"ECCENTRICITY":0.00068939,"INCLINATION":10.089,"RA_OF_ASC_NODE":50.6565,"ARG_OF_PERICENTER":269.9178,"MEAN_ANOMALY":291.0357,"EPHEMERIS_TYPE":0,"CLASSIFICATION_TYPE":"U","NORAD_CAT_ID":24674,"ELEMENT_SET_NO":999,"REV_AT_EPOCH":10684,"BSTAR":0,"MEAN_MOTION_DOT":-2.45e-6,"MEAN_MOTION_DDOT":0},{"OBJECT_NAME":"DFH 3-2","OBJECT_ID":"1997-021A","EPOCH":"2026-03-02T18:08:25.847808","MEAN_MOTION":1.00279085,"ECCENTRICITY":0.0003376,"INCLINATION":13.4171,"RA_OF_ASC_NODE":14.5924,"ARG_OF_PERICENTER":95.4198,"MEAN_ANOMALY":89.4184,"EPHEMERIS_TYPE":0,"CLASSIFICATION_TYPE":"U","NORAD_CAT_ID":24798,"ELEMENT_SET_NO":999,"REV_AT_EPOCH":10545,"BSTAR":0,"MEAN_MOTION_DOT":-3.72e-6,"MEAN_MOTION_DDOT":0},{"OBJECT_NAME":"AMC-3","OBJECT_ID":"1997-050A","EPOCH":"2026-03-03T00:02:28.323744","MEAN_MOTION":1.00272075,"ECCENTRICITY":0.0003449,"INCLINATION":7.8863,"RA_OF_ASC_NODE":65.2894,"ARG_OF_PERICENTER":283.7763,"MEAN_ANOMALY":100.3151,"EPHEMERIS_TYPE":0,"CLASSIFICATION_TYPE":"U","NORAD_CAT_ID":24936,"ELEMENT_SET_NO":999,"REV_AT_EPOCH":5137,"BSTAR":0,"MEAN_MOTION_DOT":-2.74e-6,"MEAN_MOTION_DDOT":0},{"OBJECT_NAME":"USA 134","OBJECT_ID":"1997-065A","EPOCH":"2026-03-03T02:18:35.090208","MEAN_MOTION":1.00271057,"ECCENTRICITY":0.0007024,"INCLINATION":12.6588,"RA_OF_ASC_NODE":22.5081,"ARG_OF_PERICENTER":305.5371,"MEAN_ANOMALY":115.3615,"EPHEMERIS_TYPE":0,"CLASSIFICATION_TYPE":"U","NORAD_CAT_ID":25019,"ELEMENT_SET_NO":999,"REV_AT_EPOCH":3189,"BSTAR":0,"MEAN_MOTION_DOT":-7.3e-7,"MEAN_MOTION_DDOT":0},{"OBJECT_NAME":"KUPON","OBJECT_ID":"1997-070A","EPOCH":"2026-03-02T06:57:21.378528","MEAN_MOTION":1.00288205,"ECCENTRICITY":0.00059776,"INCLINATION":14.5607,"RA_OF_ASC_NODE":355.4468,"ARG_OF_PERICENTER":305.9472,"MEAN_ANOMALY":54.0088,"EPHEMERIS_TYPE":0,"CLASSIFICATION_TYPE":"U","NORAD_CAT_ID":25045,"ELEMENT_SET_NO":999,"REV_AT_EPOCH":10357,"BSTAR":0,"MEAN_MOTION_DOT":-2.68e-6,"MEAN_MOTION_DDOT":0},{"OBJECT_NAME":"INDOSTAR 1","OBJECT_ID":"1997-071B","EPOCH":"2026-03-03T01:07:38.736768","MEAN_MOTION":1.00266953,"ECCENTRICITY":0.0004917,"INCLINATION":12.8351,"RA_OF_ASC_NODE":20.824,"ARG_OF_PERICENTER":299.0491,"MEAN_ANOMALY":248.5073,"EPHEMERIS_TYPE":0,"CLASSIFICATION_TYPE":"U","NORAD_CAT_ID":25050,"ELEMENT_SET_NO":999,"REV_AT_EPOCH":10373,"BSTAR":0,"MEAN_MOTION_DOT":1.18e-6,"MEAN_MOTION_DDOT":0},{"OBJECT_NAME":"GALAXY 8 (G-8)","OBJECT_ID":"1997-078A","EPOCH":"2026-03-02T19:53:58.447680","MEAN_MOTION":0.99695439,"ECCENTRICITY":0.00067466,"INCLINATION":13.9793,"RA_OF_ASC_NODE":10.682,"ARG_OF_PERICENTER":17.8001,"MEAN_ANOMALY":162.9744,"EPHEMERIS_TYPE":0,"CLASSIFICATION_TYPE":"U","NORAD_CAT_ID":25086,"ELEMENT_SET_NO":999,"REV_AT_EPOCH":10288,"BSTAR":0,"MEAN_MOTION_DOT":-1.55e-6,"MEAN_MOTION_DDOT":0},{"OBJECT_NAME":"INTELSAT 804 (IS-804)","OBJECT_ID":"1997-083A","EPOCH":"2026-03-03T02:53:39.272352","MEAN_MOTION":1.00259878,"ECCENTRICITY":0.0008751,"INCLINATION":13.0444,"RA_OF_ASC_NODE":18.4158,"ARG_OF_PERICENTER":8.8514,"MEAN_ANOMALY":344.9976,"EPHEMERIS_TYPE":0,"CLASSIFICATION_TYPE":"U","NORAD_CAT_ID":25110,"ELEMENT_SET_NO":999,"REV_AT_EPOCH":10326,"BSTAR":0,"MEAN_MOTION_DOT":-7.3e-7,"MEAN_MOTION_DDOT":0},{"OBJECT_NAME":"INMARSAT 3-F5","OBJECT_ID":"1998-006B","EPOCH":"2026-03-02T20:42:14.552352","MEAN_MOTION":1.00268386,"ECCENTRICITY":0.0005367,"INCLINATION":9.4564,"RA_OF_ASC_NODE":54.3004,"ARG_OF_PERICENTER":293.166,"MEAN_ANOMALY":69.6941,"EPHEMERIS_TYPE":0,"CLASSIFICATION_TYPE":"U","NORAD_CAT_ID":25153,"ELEMENT_SET_NO":999,"REV_AT_EPOCH":10283,"BSTAR":0,"MEAN_MOTION_DOT":-3.02e-6,"MEAN_MOTION_DDOT":0},{"OBJECT_NAME":"UFO 8 (USA 138)","OBJECT_ID":"1998-016A","EPOCH":"2026-03-02T16:35:38.658624","MEAN_MOTION":1.00287121,"ECCENTRICITY":0.00082552,"INCLINATION":11.0022,"RA_OF_ASC_NODE":23.4005,"ARG_OF_PERICENTER":270.7445,"MEAN_ANOMALY":266.2732,"EPHEMERIS_TYPE":0,"CLASSIFICATION_TYPE":"U","NORAD_CAT_ID":25258,"ELEMENT_SET_NO":999,"REV_AT_EPOCH":10279,"BSTAR":0,"MEAN_MOTION_DOT":-2.15e-6,"MEAN_MOTION_DDOT":0}]
